[{"OBJECT_NAME":"COSMOS 2582","OBJECT_ID":"2025-026B","EPOCH":"2026-03-09T19:42:31.273920","MEAN_MOTION":14.94730838,"ECCENTRICITY":0.0010584,"INCLINATION":81.9985,"RA_OF_ASC_NODE":175.8563,"ARG_OF_PERICENTER":32.77,"MEAN_ANOMALY":327.4174,"EPHEMERIS_TYPE":0,"CLASSIFICATION_TYPE":"U","NORAD_CAT_ID":62903,"ELEMENT_SET_NO":999,"REV_AT_EPOCH":5936,"BSTAR":0.0001816,"MEAN_MOTION_DOT":1.996e-5,"MEAN_MOTION_DDOT":0},{"OBJECT_NAME":"OKEAN-4","OBJECT_ID":"1994-066A","EPOCH":"2026-03-09T20:34:09.232320","MEAN_MOTION":14.96885016,"ECCENTRICITY":0.00147251,"INCLINATION":82.5373,"RA_OF_ASC_NODE":349.8556,"ARG_OF_PERICENTER":246.8531,"MEAN_ANOMALY":113.1141,"EPHEMERIS_TYPE":0,"CLASSIFICATION_TYPE":"U","NORAD_CAT_ID":23317,"ELEMENT_SET_NO":999,"REV_AT_EPOCH":70047,"BSTAR":0.00028288801,"MEAN_MOTION_DOT":3.276e-5,"MEAN_MOTION_DDOT":0}]
